KOREASAT 7              
1 42691U 17023A   22042.51665487 -.00000358  00000+0  00000+0 0  9992
2 42691   0.0161  12.7040 0000369 269.3271 161.3738  1.00269246 17472
SGDC                    
1 42692U 17023B   22042.81385810 -.00000245  00000+0  00000+0 0  9990
2 42692   0.0114  79.9832 0002327 241.4178  38.5561  1.00271263 17547
GSAT-9                  
1 42695U 17024A   22042.57896295 -.00000283  00000+0  00000+0 0  9993
2 42695   0.0977 270.2223 0002762  54.2835 122.8654  1.00273589 17396
INMARSAT 5-F4           
1 42698U 17025A   22042.50488042  .00000079  00000+0  00000+0 0  9999
2 42698   0.0170  99.8448 0000109 170.1963 109.7117  1.00272281 17353
SES-15                  
1 42709U 17026A   22042.52726190  .00000064  00000+0  00000+0 0  9998
2 42709   0.0207  17.1552 0000691 290.1562 254.8808  1.00270311 18239
COSMOS 2518             
1 42719U 17027A   22039.33716983 -.00000281  00000+0  00000+0 0  9996
2 42719  63.0775 104.5363 7019475 265.5480 272.1064  2.00628314 34496
QZS-2 (MICHIBIKI-2)     
1 42738U 17028A   22042.49146807 -.00000111  00000+0  00000+0 0  9993
2 42738  41.9811 265.9414 0750638 270.0095 283.5626  1.00272168 17224
VIASAT-2                
1 42740U 17029A   22042.48682583 -.00000261  00000+0  00000+0 0  9998
2 42740   0.0239 239.8588 0000376   4.4553   2.5457  1.00270713 17285
EUTELSAT 172B           
1 42741U 17029B   22043.25608728 -.00000003  00000+0  00000+0 0  9998
2 42741   0.0329 141.8673 0000266 209.4942  55.0390  1.00271336 17809
GSAT-19                 
1 42747U 17031A   22043.08590867  .00000130  00000+0  00000+0 0  9992
2 42747   0.0988 272.6465 0005712 123.2209 185.0051  1.00270321 17225
ECHOSTAR 21             
1 42749U 17032A   22042.35207411  .00000075  00000+0  00000+0 0  9992
2 42749   4.2485 311.1299 0002630 348.3267 338.8991  1.00273152 17191
LEMUR-2-ANGELA          
1 42752U 17019B   22042.85069570  .00017889  00000+0  49841-3 0  9999
2 42752  51.6373 133.4297 0008272 330.5297  29.5219 15.36820831261839
LEMUR-2-JENNYBARNA      
1 42753U 17019C   22042.73834597  .00030466  00000+0  72069-3 0  9990
2 42753  51.6354 115.7573 0007515 346.0579  14.0198 15.41514609262018
LEMUR-2-ROBMOORE        
1 42754U 17019D   22043.08864337  .00016148  00000+0  45202-3 0  9995
2 42754  51.6370 133.4737 0008308 334.0452  26.0114 15.36754615261831
LEMUR-2-SPIROVISION     
1 42755U 17019E   22043.23111674  .00022478  00000+0  53893-3 0  9990
2 42755  51.6370 113.5819 0007452 340.7551  58.2876 15.41283778262000
HXMT (HUIYAN)           
1 42758U 17034A   22043.21417826  .00002381  00000+0  15849-3 0  9996
2 42758  43.0185 316.6928 0008584 225.1311 296.1114 15.09699105257243
ZHUHAI-1 02 (CAS-4B)    
1 42759U 17034B   22043.21649478  .00003039  00000+0  19235-3 0  9991
2 42759  43.0192 302.4360 0008666 230.3452 270.5592 15.10884043257403
NUSAT-3 (MILANESAT)     
1 42760U 17034C   22043.15405561  .00003144  00000+0  19504-3 0  9995
2 42760  43.0167 298.4096 0008549 254.5660 233.0043 15.11538921257458
ZHUHAI-1 01 (CAS-4A)    
1 42761U 17034D   22043.12897403  .00002956  00000+0  18699-3 0  9997
2 42761  43.0188 301.7976 0009109 231.7254 277.1656 15.10968852257397
UCLSAT                  
1 42765U 17036A   22043.12444765  .00011938  00000+0  45522-3 0  9997
2 42765  97.2184  89.8691 0011543  55.4654 304.7673 15.26768507258126
NIUSAT                  
1 42766U 17036B   22043.08246990  .00008138  00000+0  33614-3 0  9990
2 42766  97.2214  85.4706 0015831  55.0345 305.2377 15.24143615257690
CARTOSAT-2E             
1 42767U 17036C   22043.11596941  .00002313  00000+0  11284-3 0  9997
2 42767  97.4732 105.1246 0009702  93.6650 321.1423 15.19277999257331
LITUANICASAT-2          
1 42768U 17036D   22042.56444049  .00021194  00000+0  73672-3 0  9994
2 42768  97.2270  91.0942 0013406  43.4512 316.7783 15.29666483257979
CE-SAT-I                
1 42769U 17036E   22043.25212032  .00003605  00000+0  15852-3 0  9990
2 42769  97.2170  83.4978 0016628  58.3716 301.9141 15.22377952257543
LEMUR-2-SHAINAJOHL      
1 42771U 17036G   22043.11044206  .00012880  00000+0  49039-3 0  9993
2 42771  97.2226  88.7335 0014016  48.2559 311.9876 15.26770898257844
LEMUR-2-XUENITERENCE    
1 42772U 17036H   22043.13381644  .00016385  00000+0  61414-3 0  9991
2 42772  97.2190  88.7938 0013523  46.3026 313.9331 15.27243232257873
LEMUR-2-LUCYBRYCE       
1 42773U 17036J   22042.56956231  .00006703  00000+0  26718-3 0  9999
2 42773  97.2288  88.7979 0014011  49.7964 310.4499 15.25434698257769
LEMUR-2-KUNGFOO         
1 42774U 17036K   22042.08608958  .00013694  00000+0  51810-3 0  9995
2 42774  97.2224  88.1324 0013409  50.0349 310.2065 15.26974396257706
AALTO-1                 
1 42775U 17036L   22043.07962974  .00006887  00000+0  28768-3 0  9999
2 42775  97.2175  85.5532 0014501  54.6225 305.6365 15.23838464257670
URSA MAIOR              
1 42776U 17036M   22043.09844813  .00007456  00000+0  30769-3 0  9990
2 42776  97.2187  86.1919 0014192  53.7866 306.4682 15.24227822257703
COMPASS 2               
1 42777U 17036N   22042.67853327  .00015906  00000+0  57816-3 0  9995
2 42777  97.2256  90.9963 0011907  46.3419 313.8806 15.28281899257917
MAX VALIER SAT          
1 42778U 17036P   22042.67424987  .00007289  00000+0  29480-3 0  9993
2 42778  97.2258  88.1650 0012755  57.1767 303.0698 15.24931764257728
LEMUR-2-LYNSEY-SYMO     
1 42779U 17036Q   22042.68692138  .00014047  00000+0  50122-3 0  9997
2 42779  97.2278  92.5438 0011266  49.6457 310.5765 15.28922918258007
LEMUR-2-LISASAURUS      
1 42780U 17036R   22042.55374583  .00008633  00000+0  33615-3 0  9998
2 42780  97.2274  89.8227 0012207  55.5421 304.6969 15.26155042257837
LEMUR-2-SAM-AMELIA      
1 42781U 17036S   22042.53452679  .00007133  00000+0  27703-3 0  9995
2 42781  97.2291  90.7098 0012269  54.2689 305.9690 15.26299004257869
LEMUR-2-MCPEAKE         
1 42782U 17036T   22042.66755586  .00014754  00000+0  54030-3 0  9993
2 42782  97.2235  91.2495 0011347  52.0539 308.1725 15.28058051257930
DIAMOND RED             
1 42783U 17036U   22043.10091053  .00008331  00000+0  33278-3 0  9991
2 42783  97.2198  88.2897 0012664  59.7498 300.4993 15.25304697257829
PEGASUS                 
1 42784U 17036V   22043.11705930  .00010779  00000+0  41893-3 0  9990
2 42784  97.2198  89.2405 0012315  57.5919 302.6510 15.26151267257882
DIAMOND GREEN           
1 42785U 17036W   22042.77177958  .00005029  00000+0  20206-3 0  9992
2 42785  97.2201  88.0306 0012525  61.4456 298.8042 15.25308026257767
DIAMOND BLUE            
1 42786U 17036X   22043.09905195  .00008422  00000+0  33619-3 0  9993
2 42786  97.2201  88.3383 0012474  60.8680 299.3806 15.25325802257812
NUDTSAT                 
1 42787U 17036Y   22042.88867596  .00012211  00000+0  43386-3 0  9995
2 42787  97.2229  92.3605 0011262  49.2838 310.9381 15.29095411257884
SUCHAI                  
1 42788U 17036Z   22042.57535233  .00012752  00000+0  47814-3 0  9992
2 42788  97.2207  90.0677 0011713  55.8346 304.4002 15.27307510257953
SKCUBE                  
1 42789U 17036AA  22042.59035130  .00011508  00000+0  43753-3 0  9992
2 42789  97.2203  89.6609 0011690  56.5257 303.7098 15.26874790257856
VZLUSAT-1               
1 42790U 17036AB  22042.36560397  .00018606  00000+0  66060-3 0  9999
2 42790  97.2236  91.8354 0010639  51.8716 308.3482 15.29033272257950
ROBUSTA-1B              
1 42792U 17036AD  22042.64677004  .00012118  00000+0  45576-3 0  9997
2 42792  97.2205  90.2002 0011239  56.6009 303.6304 15.27223196257906
CICERO 6                
1 42793U 17036AE  22042.59633204  .00007517  00000+0  30005-3 0  9994
2 42793  97.2180  88.3866 0011059  61.9300 298.3055 15.25377751257872
TYVAK-53B               
1 42795U 17036AG  22042.34579680  .00027626  00000+0  93282-3 0  9995
2 42795  97.2025  88.3033 0005767 174.9000 185.2301 15.30626758257990
BULGARIASAT-1           
1 42801U 17038A   22042.78100750  .00000015  00000+0  00000+0 0  9996
2 42801   0.0181 228.3581 0002584  93.8182 102.6730  1.00270698 17006
IRIDIUM 113             
1 42803U 17039A   22042.56470511  .00000024  00000+0  13442-5 0  9990
2 42803  86.3944 265.1031 0002080  95.3312 264.8121 14.34215680243775
IRIDIUM 123             
1 42804U 17039B   22042.39688434  .00000139  00000+0  42441-4 0  9994
2 42804  86.3968 296.7387 0001812  89.4656 270.6748 14.34216844242517
IRIDIUM 120             
1 42805U 17039C   22043.11650791  .00000201  00000+0  64840-4 0  9998
2 42805  86.3932 264.8603 0002134  97.2756 262.8682 14.34218217243845
IRIDIUM 115             
1 42806U 17039D   22042.69027180  .00000251  00000+0  68717-4 0  9993
2 42806  86.4472 264.9296 0001353 156.5800 203.5462 14.43284890245431
IRIDIUM 118             
1 42807U 17039E   22042.42859444  .00000184  00000+0  58484-4 0  9996
2 42807  86.3966 296.7302 0001758  82.0170 278.1225 14.34221106242514
IRIDIUM 117             
1 42808U 17039F   22043.21508048  .00000177  00000+0  56214-4 0  9997
2 42808  86.3967 296.3729 0002340  92.4921 267.6542 14.34215305242667
IRIDIUM 126             
1 42809U 17039G   22042.40323561  .00000176  00000+0  55692-4 0  9991
2 42809  86.3969 296.7387 0001988  89.2559 270.8865 14.34218761242519
IRIDIUM 124             
1 42810U 17039H   22042.55473234  .00000085  00000+0  19363-4 0  9996
2 42810  86.4480 233.3955 0002466  85.6681 274.4801 14.43279654246260
IRIDIUM 128             
1 42811U 17039J   22042.81257483  .00000188  00000+0  60204-4 0  9996
2 42811  86.4003 328.1127 0002023  99.0953 261.0472 14.34217869242606
IRIDIUM 121             
1 42812U 17039K   22043.18970843  .00000181  00000+0  57445-4 0  9996
2 42812  86.3967 296.4285 0001904  90.6876 269.4537 14.34220870242627
HELLAS-SAT 3            
1 42814U 17040A   22042.78842104  .00000156  00000+0  00000+0 0  9995
2 42814   0.0550   7.5133 0004653 334.5451 122.5692  1.00269865 16958
